STARLINK-2535           
1 48295U 21036V   26068.27564317 -.00000403  00000+0 -14738-5 0  9993
2 48295  53.1607  77.4642 0001518  97.2274 262.8900 15.30191983268348
EOSSAT-1                
1 55053U 23001AW  26068.73619225  .00007695  00000+0  24844-3 0  9992
2 55053  97.3357 130.2294 0011263 110.3168 249.9285 15.32339828176689
